[
  "TORO                    \r\n1 60530U 24149BQ  26197.19242581  .00000495  00000+0  48552-4 0  9996\r\n2 60530  97.6775 271.3189 0001133 101.5023 258.6326 14.96517564104294\r\n",
  "TORO3                   \r\n1 68481U 26067BT  26197.13582514  .00000125  00000+0  17747-4 0  9999\r\n2 68481  97.7688 155.0894 0002160 185.3229 174.7967 14.92167355 16040\r\n",
  "SATORO-T3               \r\n1 64589U 25135BP  26197.28952856  .00000633  00000+0  64009-4 0  9992\r\n2 64589  97.7739 311.5243 0003850 221.8446 138.2480 14.94438324 58256\r\n",
  "GEMINI-POLLUX           \r\n1 69000U 26100W   26197.16199868  .00000709  00000+0  74779-4 0  9990\r\n2 69000  97.7289  94.0972 0002183 108.3010 251.8446 14.92325307 11027\r\n",
  "FORMOSAT-2 (ROCSAT 2)   \r\n1 28254U 04018A   26196.88192314 -.00000269  00000+0 -15026-3 0  9999\r\n2 28254  98.8458 163.4835 0000926 200.7780 213.4067 14.01251663132778\r\n",
  "FORMOSAT-3 FM6          \r\n1 29047U 06011A   26197.17451080  .00000176  00000+0  80835-4 0  9992\r\n2 29047  71.9760 251.9265 0048614 189.8543 170.1647 14.31419245 58558\r\n",
  "FORMOSAT-3 FM1          \r\n1 29048U 06011B   26197.16851812  .00000155  00000+0  73366-4 0  9997\r\n2 29048  71.9651 160.3239 0041278 152.5548 207.7783 14.31408054 60921\r\n",
  "FORMOSAT-3 FM5          \r\n1 29049U 06011C   26196.86902970  .00000165  00000+0  77091-4 0  9996\r\n2 29049  72.0196 345.2296 0033267 159.6509 200.5963 14.31424656 56774\r\n",
  "FORMOSAT-3 FM3          \r\n1 29050U 06011D   26197.16590522  .00000451  00000+0  88548-4 0  9995\r\n2 29050  72.0121 249.5219 0044743 233.7471 125.9548 14.67016286 80623\r\n",
  "FORMOSAT-3 FM4          \r\n1 29051U 06011E   26197.17591188  .00000136  00000+0  65227-4 0  9995\r\n2 29051  72.0022 242.0902 0064775  38.8840 321.6930 14.31557977 59413\r\n",
  "FORMOSAT-3 FM2          \r\n1 29052U 06011F   26196.75403641  .00000198  00000+0  88898-4 0  9992\r\n2 29052  72.0338 323.8579 0037334 111.5717 248.9406 14.31639158 56873\r\n",
  "PACE                    \r\n1 40022U 14033N   26197.00338912  .00002229  00000+0  13748-3 0  9990\r\n2 40022  98.1244 203.6505 0007869 115.3255 244.8789 15.11075806657386\r\n",
  "FORMOSAT-5              \r\n1 42920U 17049A   26197.22426658  .00000039  00000+0  21001-4 0  9997\r\n2 42920  98.2246 271.8878 0011268   0.6783 359.4426 14.50907979470884\r\n",
  "FORMOSAT 7-3            \r\n1 44343U 19036E   26196.79827990  .00002519  00000+0  13039-3 0  9997\r\n2 44343  23.9998 341.5936 0000203 233.9727 126.0758 15.09997448387574\r\n",
  "FORMOSAT 7-1            \r\n1 44349U 19036L   26197.25050213  .00001243  00000+0  80500-4 0  9992\r\n2 44349  23.9964 196.4397 0000919 141.1179 218.9388 14.96613850389014\r\n",
  "FORMOSAT 7-4            \r\n1 44350U 19036M   26197.27309357  .00001262  00000+0  82184-4 0  9993\r\n2 44350  23.9975 258.3991 0001111 151.5439 208.5123 14.96611866388437\r\n",
  "FORMOSAT 7-2            \r\n1 44351U 19036N   26196.56205992  .00001497  00000+0  10230-3 0  9997\r\n2 44351  23.9989 317.5071 0000688 133.1454 226.9104 14.96610547387843\r\n",
  "FORMOSAT 7-6            \r\n1 44353U 19036Q   26197.16169520  .00001370  00000+0  91428-4 0  9991\r\n2 44353  23.9967 134.2708 0001336  83.4980 276.5673 14.96614678386169\r\n",
  "FORMOSAT 7-5            \r\n1 44358U 19036V   26197.00580791  .00001438  00000+0  97276-4 0  9998\r\n2 44358  23.9988  74.0755 0000363 135.7772 224.2758 14.96593764386671\r\n",
  "FORMOSAT-7R (TRITON)    \r\n1 58017U 23155B   26197.16081913  .00000753  00000+0  81483-4 0  9993\r\n2 58017  97.8352 278.3518 0001529  52.1476 307.9881 14.91195737150541\r\n",
  "NIGHTJAR                \r\n1 60535U 24149BV  26197.16103165  .00002201  00000+0  18569-3 0  9993\r\n2 60535  97.6841 273.4616 0002683  94.3383 265.8147 14.99173626147210\r\n",
  "IRIS-F3                 \r\n1 62619U 25009L   26197.21211390  .00004252  00000+0  16135-3 0  9995\r\n2 62619  97.4030 277.8331 0005487 207.2860 152.8091 15.27381383 83254\r\n",
  "IRIS-F2                 \r\n1 62684U 25009CD  26197.16388220  .00007833  00000+0  29469-3 0  9990\r\n2 62684  97.3887 276.6556 0004480 231.9019 128.1817 15.27397886140883\r\n",
  "FORMOSAT-8A             \r\n1 66666U 25276A   26197.20966882  .00000868  00000+0  73108-4 0  9992\r\n2 66666  97.6547 271.0157 0005723 126.3448 233.8305 15.00754148 34419\r\n",
  "LILIUM-2                \r\n1 66679U 25276P   26197.17687413  .00001411  00000+0  72495-4 0  9995\r\n2 66679  97.4144 269.6398 0004368 262.8972  97.1765 15.18101550 34790\r\n",
  "BLACK KITE-1            \r\n1 66741U 25276CD  26197.19458915  .00003940  00000+0  18085-3 0  9993\r\n2 66741  97.4231 270.4933 0004360 235.6669 124.4154 15.20986098 32138\r\n",
  "T.MICROSAT-1            \r\n1 66766U 25276DE  26197.15522522  .00003191  00000+0  14658-3 0  9992\r\n2 66766  97.4153 270.4335 0002281  99.5490 260.6003 15.21103559 34843\r\n",
  "LILIUM-3                \r\n1 66770U 25276DJ  26197.19848417  .00001294  00000+0  63867-4 0  9994\r\n2 66770  97.4235 270.4778 0003129 126.0578 234.0947 15.19643746 34830\r\n",
  "T.MICROSAT-2            \r\n1 68433U 26067T   26196.87578172  .00002611  00000+0  13304-3 0  9997\r\n2 68433  97.4583 154.8165 0004719 342.8280  17.2793 15.17653117 16283\r\n",
  "PARUS-6U1               \r\n1 68456U 26067AS  26197.26469407  .00002648  00000+0  13433-3 0  9999\r\n2 68456  97.4571 155.1894 0004579 344.0985  16.0104 15.17799897 16344\r\n",
  "BLACK KITE-2            \r\n1 68474U 26067BL  26196.83919545  .00001361  00000+0  13734-3 0  9999\r\n2 68474  97.7563 154.7077 0003297 121.0057 239.1487 14.92701511 16008\r\n",
  "PEARL-1B                \r\n1 68980U 26100A   26197.17719440  .00000896  00000+0  96933-4 0  9994\r\n2 68980  97.7331  93.9550 0008700  58.1229 302.0835 14.90667488 11002\r\n",
  "PEARL-1A                \r\n1 68990U 26100L   26197.02242526  .00000584  00000+0  64512-4 0  9997\r\n2 68990  97.7277  93.8081 0006896  73.0542 287.1432 14.91058716 10990\r\n"
]